CCSDS_OMM_VERS = 2.0
CREATION_DATE  = 
ORIGINATOR     = 

OBJECT_NAME    = TITAN 4B R/B
OBJECT_ID      = 2000-047B
CENTER_NAME    = EARTH
REF_FRAME      = TEME
TIME_SYSTEM    = UTC
MEAN_ELEMENT_THEORY = SGP/SGP4

EPOCH          = 2025-11-04T19:38:50.677440
MEAN_MOTION    = 15.08357138
ECCENTRICITY   = .00426182
INCLINATION    = 67.9921
RA_OF_ASC_NODE = 31.3243
ARG_OF_PERICENTER = 188.3777
MEAN_ANOMALY   = 171.6666

EPHEMERIS_TYPE = 0
CLASSIFICATION_TYPE = U
NORAD_CAT_ID   = 26474
ELEMENT_SET_NO = 999
REV_AT_EPOCH   = 37407
BSTAR          = .28771017E-3
MEAN_MOTION_DOT = .4441E-4
MEAN_MOTION_DDOT = 0

CCSDS_OMM_VERS = 2.0
CREATION_DATE  = 
ORIGINATOR     = 

OBJECT_NAME    = ENVISAT
OBJECT_ID      = 2002-009A
CENTER_NAME    = EARTH
REF_FRAME      = TEME
TIME_SYSTEM    = UTC
MEAN_ELEMENT_THEORY = SGP/SGP4

EPOCH          = 2025-11-04T20:43:32.081664
MEAN_MOTION    = 14.38977206
ECCENTRICITY   = .0001341
INCLINATION    = 98.3536
RA_OF_ASC_NODE = 260.5767
ARG_OF_PERICENTER = 84.1333
MEAN_ANOMALY   = 300.2576

EPHEMERIS_TYPE = 0
CLASSIFICATION_TYPE = U
NORAD_CAT_ID   = 27386
ELEMENT_SET_NO = 999
REV_AT_EPOCH   = 24122
BSTAR          = .62905962E-4
MEAN_MOTION_DOT = .151E-5
MEAN_MOTION_DDOT = 0

CCSDS_OMM_VERS = 2.0
CREATION_DATE  = 
ORIGINATOR     = 

OBJECT_NAME    = IDEFIX & ARIANE 42P R/B
OBJECT_ID      = 2002-021B
CENTER_NAME    = EARTH
REF_FRAME      = TEME
TIME_SYSTEM    = UTC
MEAN_ELEMENT_THEORY = SGP/SGP4

EPOCH          = 2025-11-04T18:05:45.479040
MEAN_MOTION    = 14.30906716
ECCENTRICITY   = .00114
INCLINATION    = 98.5726
RA_OF_ASC_NODE = 243.9499
ARG_OF_PERICENTER = 190.1585
MEAN_ANOMALY   = 169.9369

EPHEMERIS_TYPE = 0
CLASSIFICATION_TYPE = U
NORAD_CAT_ID   = 27422
ELEMENT_SET_NO = 999
REV_AT_EPOCH   = 22615
BSTAR          = .14556085E-3
MEAN_MOTION_DOT = .339E-5
MEAN_MOTION_DDOT = 0

CCSDS_OMM_VERS = 2.0
CREATION_DATE  = 
ORIGINATOR     = 

OBJECT_NAME    = AQUA
OBJECT_ID      = 2002-022A
CENTER_NAME    = EARTH
REF_FRAME      = TEME
TIME_SYSTEM    = UTC
MEAN_ELEMENT_THEORY = SGP/SGP4

EPOCH          = 2025-11-04T23:14:36.155328
MEAN_MOTION    = 14.61667159
ECCENTRICITY   = .00011455
INCLINATION    = 98.3978
RA_OF_ASC_NODE = 269.2488
ARG_OF_PERICENTER = 49.0309
MEAN_ANOMALY   = 351.5039

EPHEMERIS_TYPE = 0
CLASSIFICATION_TYPE = U
NORAD_CAT_ID   = 27424
ELEMENT_SET_NO = 999
REV_AT_EPOCH   = 25051
BSTAR          = .26099316E-3
MEAN_MOTION_DOT = .125E-4
MEAN_MOTION_DDOT = 0

CCSDS_OMM_VERS = 2.0
CREATION_DATE  = 
ORIGINATOR     = 

OBJECT_NAME    = CZ-4B R/B
OBJECT_ID      = 2002-024C
CENTER_NAME    = EARTH
REF_FRAME      = TEME
TIME_SYSTEM    = UTC
MEAN_ELEMENT_THEORY = SGP/SGP4

EPOCH          = 2025-11-04T14:36:05.550912
MEAN_MOTION    = 14.14515825
ECCENTRICITY   = .0050455
INCLINATION    = 98.9060
RA_OF_ASC_NODE = 357.5023
ARG_OF_PERICENTER = 19.3782
MEAN_ANOMALY   = 133.7811

EPHEMERIS_TYPE = 0
CLASSIFICATION_TYPE = U
NORAD_CAT_ID   = 27432
ELEMENT_SET_NO = 999
REV_AT_EPOCH   = 21155
BSTAR          = .54372E-4
MEAN_MOTION_DOT = .61E-6
MEAN_MOTION_DDOT = 0

CCSDS_OMM_VERS = 2.0
CREATION_DATE  = 
ORIGINATOR     = 

OBJECT_NAME    = MIDORI II (ADEOS-II)
OBJECT_ID      = 2002-056A
CENTER_NAME    = EARTH
REF_FRAME      = TEME
TIME_SYSTEM    = UTC
MEAN_ELEMENT_THEORY = SGP/SGP4

EPOCH          = 2025-11-04T20:09:54.595008
MEAN_MOTION    = 14.29164826
ECCENTRICITY   = .00016725
INCLINATION    = 98.7573
RA_OF_ASC_NODE = 261.6103
ARG_OF_PERICENTER = 45.3355
MEAN_ANOMALY   = 314.7963

EPHEMERIS_TYPE = 0
CLASSIFICATION_TYPE = U
NORAD_CAT_ID   = 27597
ELEMENT_SET_NO = 999
REV_AT_EPOCH   = 19246
BSTAR          = .14743397E-3
MEAN_MOTION_DOT = .329E-5
MEAN_MOTION_DDOT = 0

CCSDS_OMM_VERS = 2.0
CREATION_DATE  = 
ORIGINATOR     = 

OBJECT_NAME    = H-2A R/B
OBJECT_ID      = 2002-056E
CENTER_NAME    = EARTH
REF_FRAME      = TEME
TIME_SYSTEM    = UTC
MEAN_ELEMENT_THEORY = SGP/SGP4

EPOCH          = 2025-11-04T20:20:13.715808
MEAN_MOTION    = 14.33634218
ECCENTRICITY   = .00703582
INCLINATION    = 98.3005
RA_OF_ASC_NODE = 269.1253
ARG_OF_PERICENTER = 172.6476
MEAN_ANOMALY   = 217.6682

EPHEMERIS_TYPE = 0
CLASSIFICATION_TYPE = U
NORAD_CAT_ID   = 27601
ELEMENT_SET_NO = 999
REV_AT_EPOCH   = 19622
BSTAR          = .12446179E-3
MEAN_MOTION_DOT = .313E-5
MEAN_MOTION_DDOT = 0

CCSDS_OMM_VERS = 2.0
CREATION_DATE  = 
ORIGINATOR     = 

OBJECT_NAME    = CZ-4B R/B
OBJECT_ID      = 2003-049C
CENTER_NAME    = EARTH
REF_FRAME      = TEME
TIME_SYSTEM    = UTC
MEAN_ELEMENT_THEORY = SGP/SGP4

EPOCH          = 2025-11-04T16:49:19.481952
MEAN_MOTION    = 14.54853697
ECCENTRICITY   = .00471158
INCLINATION    = 98.6761
RA_OF_ASC_NODE = 293.8334
ARG_OF_PERICENTER = 252.8555
MEAN_ANOMALY   = 106.7479

EPHEMERIS_TYPE = 0
CLASSIFICATION_TYPE = U
NORAD_CAT_ID   = 28059
ELEMENT_SET_NO = 999
REV_AT_EPOCH   = 16842
BSTAR          = .12390883E-3
MEAN_MOTION_DOT = .488E-5
MEAN_MOTION_DDOT = 0

CCSDS_OMM_VERS = 2.0
CREATION_DATE  = 
ORIGINATOR     = 

OBJECT_NAME    = CZ-2C R/B
OBJECT_ID      = 2004-012C
CENTER_NAME    = EARTH
REF_FRAME      = TEME
TIME_SYSTEM    = UTC
MEAN_ELEMENT_THEORY = SGP/SGP4

EPOCH          = 2025-11-04T20:55:44.510016
MEAN_MOTION    = 15.52109972
ECCENTRICITY   = .00202109
INCLINATION    = 97.7496
RA_OF_ASC_NODE = 358.4553
ARG_OF_PERICENTER = 52.0064
MEAN_ANOMALY   = 308.3009

EPHEMERIS_TYPE = 0
CLASSIFICATION_TYPE = U
NORAD_CAT_ID   = 28222
ELEMENT_SET_NO = 999
REV_AT_EPOCH   = 18484
BSTAR          = .5241154E-3
MEAN_MOTION_DOT = .31901E-3
MEAN_MOTION_DDOT = 0

CCSDS_OMM_VERS = 2.0
CREATION_DATE  = 
ORIGINATOR     = 

OBJECT_NAME    = SL-16 R/B
OBJECT_ID      = 2004-021B
CENTER_NAME    = EARTH
REF_FRAME      = TEME
TIME_SYSTEM    = UTC
MEAN_ELEMENT_THEORY = SGP/SGP4

EPOCH          = 2025-11-04T22:20:55.101120
MEAN_MOTION    = 14.14569468
ECCENTRICITY   = .0006925
INCLINATION    = 70.9971
RA_OF_ASC_NODE = 134.3065
ARG_OF_PERICENTER = 240.2326
MEAN_ANOMALY   = 119.8108

EPHEMERIS_TYPE = 0
CLASSIFICATION_TYPE = U
NORAD_CAT_ID   = 28353
ELEMENT_SET_NO = 999
REV_AT_EPOCH   = 10519
BSTAR          = -.7799116E-5
MEAN_MOTION_DOT = -.63E-6
MEAN_MOTION_DDOT = 0

CCSDS_OMM_VERS = 2.0
CREATION_DATE  = 
ORIGINATOR     = 

OBJECT_NAME    = CZ-4B R/B
OBJECT_ID      = 2004-035C
CENTER_NAME    = EARTH
REF_FRAME      = TEME
TIME_SYSTEM    = UTC
MEAN_ELEMENT_THEORY = SGP/SGP4

EPOCH          = 2025-11-04T19:32:54.002688
MEAN_MOTION    = 15.26476678
ECCENTRICITY   = .00354502
INCLINATION    = 97.3661
RA_OF_ASC_NODE = 339.6789
ARG_OF_PERICENTER = 53.1144
MEAN_ANOMALY   = 307.3335

EPHEMERIS_TYPE = 0
CLASSIFICATION_TYPE = U
NORAD_CAT_ID   = 28415
ELEMENT_SET_NO = 999
REV_AT_EPOCH   = 16084
BSTAR          = .30409179E-3
MEAN_MOTION_DOT = .8004E-4
MEAN_MOTION_DDOT = 0

CCSDS_OMM_VERS = 2.0
CREATION_DATE  = 
ORIGINATOR     = 

OBJECT_NAME    = CZ-2C R/B
OBJECT_ID      = 2004-046B
CENTER_NAME    = EARTH
REF_FRAME      = TEME
TIME_SYSTEM    = UTC
MEAN_ELEMENT_THEORY = SGP/SGP4

EPOCH          = 2025-11-04T17:49:43.972320
MEAN_MOTION    = 14.26914780
ECCENTRICITY   = .01398167
INCLINATION    = 98.1951
RA_OF_ASC_NODE = 226.4899
ARG_OF_PERICENTER = 163.8751
MEAN_ANOMALY   = 196.6948

EPHEMERIS_TYPE = 0
CLASSIFICATION_TYPE = U
NORAD_CAT_ID   = 28480
ELEMENT_SET_NO = 999
REV_AT_EPOCH   = 9068
BSTAR          = .79817968E-4
MEAN_MOTION_DOT = .175E-5
MEAN_MOTION_DDOT = 0

